STARLINK-2378           
1 47916U 21021BJ  25236.56478053  .00000990  00000+0  85337-4 0  9996
2 47916  53.0556  66.5486 0001145  85.0467 275.0653 15.06403142246601
STARLINK-2405           
1 47919U 21021BM  25236.29755727 -.00001336  00000+0 -70825-4 0  9998
2 47919  53.0540  87.7465 0001354  92.0193 268.0951 15.06397847246286
STARLINK-1647           
1 47978U 21024B   25236.12845877  .00002728  00000+0  20193-3 0  9990
2 47978  53.0543 143.5071 0001519  92.0950 268.0213 15.06411479244784
STARLINK-2303           
1 47981U 21024E   25236.11740020  .00001746  00000+0  13603-3 0  9994
2 47981  53.0550 143.5571 0001552  91.8581 268.2586 15.06412451244781
STARLINK-2273           
1 47993U 21024S   25236.01420124  .00002138  00000+0  16237-3 0  9998
2 47993  53.0546 104.0175 0001386  87.9396 272.1752 15.06408010245322
STARLINK-2266           
1 47997U 21024W   25236.39800382  .00001670  00000+0  13095-3 0  9990
2 47997  53.0538 117.2973 0001338 100.7138 259.4002 15.06401055245175
STARLINK-2270           
1 48000U 21024Z   25236.61826295 -.00000783  00000+0 -33720-4 0  9996
2 48000  53.0544  46.5086 0001263  86.4433 273.6700 15.06391596246130
STARLINK-2153           
1 48009U 21024AJ  25236.42518583  .00000710  00000+0  66518-4 0  9991
2 48009  53.0541 122.1720 0001321  89.5037 270.6104 15.06401139245051
STARLINK-2226           
1 48010U 21024AK  25236.03999797  .00001792  00000+0  13911-3 0  9999
2 48010  53.0545 143.9041 0001548  91.0230 269.0936 15.06411507244715
STARLINK-2282           
1 48018U 21024AT  25236.58337963  .00007484  00000+0  63514-4 0  9997
2 48018  53.0197  61.6471 0006299 191.0380 305.3938 15.70863371  5907
STARLINK-2285           
1 48019U 21024AU  25236.40168607  .00001317  00000+0  10730-3 0  9996
2 48019  53.0539 117.2817 0001332  96.7653 263.3488 15.06402901245116
STARLINK-2298           
1 48022U 21024AX  25236.15291170  .00002577  00000+0  19174-3 0  9994
2 48022  53.0541 138.6768 0001437  90.9586 269.1567 15.06414559244856
STARLINK-2292           
1 48023U 21024AY  25236.00913009  .00002808  00000+0  20728-3 0  9995
2 48023  53.0547 139.0407 0001420  91.0880 269.0272 15.06414231244836
STARLINK-2299           
1 48029U 21024BE  25236.05334691  .00002197  00000+0  16629-3 0  9996
2 48029  53.0545 138.8397 0001391  90.4043 269.7106 15.06413487244842
STARLINK-2404           
1 48093U 21027B   25236.56666512 -.00000982  00000+0 -47067-4 0  9999
2 48093  53.0564 326.7417 0001371  86.9211 273.1935 15.06400303242840
STARLINK-2412           
1 48094U 21027C   25236.58414657  .00000552  00000+0  55951-4 0  9995
2 48094  53.0567 336.4625 0001167  96.9669 263.1453 15.06390565242712
