[{"OBJECT_NAME":"STARLINK-2378","OBJECT_ID":"2021-021BJ","EPOCH":"2025-08-24T13:33:17.037792","MEAN_MOTION":15.06403142,"ECCENTRICITY":0.00011454,"INCLINATION":53.0556,"RA_OF_ASC_NODE":66.5486,"ARG_OF_PERICENTER":85.0467,"MEAN_ANOMALY":275.0653,"EPHEMERIS_TYPE":0,"CLASSIFICATION_TYPE":"U","NORAD_CAT_ID":47916,"ELEMENT_SET_NO":999,"REV_AT_EPOCH":24660,"BSTAR":8.5337251e-5,"MEAN_MOTION_DOT":9.9e-6,"MEAN_MOTION_DDOT":0},{"OBJECT_NAME":"STARLINK-2405","OBJECT_ID":"2021-021BM","EPOCH":"2025-08-24T07:08:28.948128","MEAN_MOTION":15.06397847,"ECCENTRICITY":0.00013547,"INCLINATION":53.054,"RA_OF_ASC_NODE":87.7465,"ARG_OF_PERICENTER":92.0193,"MEAN_ANOMALY":268.0951,"EPHEMERIS_TYPE":0,"CLASSIFICATION_TYPE":"U","NORAD_CAT_ID":47919,"ELEMENT_SET_NO":999,"REV_AT_EPOCH":24628,"BSTAR":-7.0824829e-5,"MEAN_MOTION_DOT":-1.336e-5,"MEAN_MOTION_DDOT":0},{"OBJECT_NAME":"STARLINK-1647","OBJECT_ID":"2021-024B","EPOCH":"2025-08-24T03:04:58.837728","MEAN_MOTION":15.06411479,"ECCENTRICITY":0.00015199,"INCLINATION":53.0543,"RA_OF_ASC_NODE":143.5071,"ARG_OF_PERICENTER":92.095,"MEAN_ANOMALY":268.0213,"EPHEMERIS_TYPE":0,"CLASSIFICATION_TYPE":"U","NORAD_CAT_ID":47978,"ELEMENT_SET_NO":999,"REV_AT_EPOCH":24478,"BSTAR":0.00020193091,"MEAN_MOTION_DOT":2.728e-5,"MEAN_MOTION_DDOT":0},{"OBJECT_NAME":"STARLINK-2303","OBJECT_ID":"2021-024E","EPOCH":"2025-08-24T02:49:03.377280","MEAN_MOTION":15.06412451,"ECCENTRICITY":0.00015523,"INCLINATION":53.055,"RA_OF_ASC_NODE":143.5571,"ARG_OF_PERICENTER":91.8581,"MEAN_ANOMALY":268.2586,"EPHEMERIS_TYPE":0,"CLASSIFICATION_TYPE":"U","NORAD_CAT_ID":47981,"ELEMENT_SET_NO":999,"REV_AT_EPOCH":24478,"BSTAR":0.00013603286,"MEAN_MOTION_DOT":1.746e-5,"MEAN_MOTION_DDOT":0},{"OBJECT_NAME":"STARLINK-2273","OBJECT_ID":"2021-024S","EPOCH":"2025-08-24T00:20:26.987136","MEAN_MOTION":15.0640801,"ECCENTRICITY":0.00013865,"INCLINATION":53.0546,"RA_OF_ASC_NODE":104.0175,"ARG_OF_PERICENTER":87.9396,"MEAN_ANOMALY":272.1752,"EPHEMERIS_TYPE":0,"CLASSIFICATION_TYPE":"U","NORAD_CAT_ID":47993,"ELEMENT_SET_NO":999,"REV_AT_EPOCH":24532,"BSTAR":0.00016236539,"MEAN_MOTION_DOT":2.138e-5,"MEAN_MOTION_DDOT":0},{"OBJECT_NAME":"STARLINK-2266","OBJECT_ID":"2021-024W","EPOCH":"2025-08-24T09:33:07.530048","MEAN_MOTION":15.06401055,"ECCENTRICITY":0.00013385,"INCLINATION":53.0538,"RA_OF_ASC_NODE":117.2973,"ARG_OF_PERICENTER":100.7138,"MEAN_ANOMALY":259.4002,"EPHEMERIS_TYPE":0,"CLASSIFICATION_TYPE":"U","NORAD_CAT_ID":47997,"ELEMENT_SET_NO":999,"REV_AT_EPOCH":24517,"BSTAR":0.00013095224,"MEAN_MOTION_DOT":1.67e-5,"MEAN_MOTION_DDOT":0},{"OBJECT_NAME":"STARLINK-2270","OBJECT_ID":"2021-024Z","EPOCH":"2025-08-24T14:50:17.918880","MEAN_MOTION":15.06391596,"ECCENTRICITY":0.00012633,"INCLINATION":53.0544,"RA_OF_ASC_NODE":46.5086,"ARG_OF_PERICENTER":86.4433,"MEAN_ANOMALY":273.67,"EPHEMERIS_TYPE":0,"CLASSIFICATION_TYPE":"U","NORAD_CAT_ID":48000,"ELEMENT_SET_NO":999,"REV_AT_EPOCH":24613,"BSTAR":-3.3719924e-5,"MEAN_MOTION_DOT":-7.83e-6,"MEAN_MOTION_DDOT":0},{"OBJECT_NAME":"STARLINK-2153","OBJECT_ID":"2021-024AJ","EPOCH":"2025-08-24T10:12:16.055712","MEAN_MOTION":15.06401139,"ECCENTRICITY":0.00013218,"INCLINATION":53.0541,"RA_OF_ASC_NODE":122.172,"ARG_OF_PERICENTER":89.5037,"MEAN_ANOMALY":270.6104,"EPHEMERIS_TYPE":0,"CLASSIFICATION_TYPE":"U","NORAD_CAT_ID":48009,"ELEMENT_SET_NO":999,"REV_AT_EPOCH":24505,"BSTAR":6.6517776e-5,"MEAN_MOTION_DOT":7.1e-6,"MEAN_MOTION_DDOT":0},{"OBJECT_NAME":"STARLINK-2226","OBJECT_ID":"2021-024AK","EPOCH":"2025-08-24T00:57:35.824608","MEAN_MOTION":15.06411507,"ECCENTRICITY":0.00015484,"INCLINATION":53.0545,"RA_OF_ASC_NODE":143.9041,"ARG_OF_PERICENTER":91.023,"MEAN_ANOMALY":269.0936,"EPHEMERIS_TYPE":0,"CLASSIFICATION_TYPE":"U","NORAD_CAT_ID":48010,"ELEMENT_SET_NO":999,"REV_AT_EPOCH":24471,"BSTAR":0.00013910952,"MEAN_MOTION_DOT":1.792e-5,"MEAN_MOTION_DDOT":0},{"OBJECT_NAME":"STARLINK-2282","OBJECT_ID":"2021-024AT","EPOCH":"2025-08-24T14:00:04.000032","MEAN_MOTION":15.70863371,"ECCENTRICITY":0.00062996,"INCLINATION":53.0197,"RA_OF_ASC_NODE":61.6471,"ARG_OF_PERICENTER":191.038,"MEAN_ANOMALY":305.3938,"EPHEMERIS_TYPE":0,"CLASSIFICATION_TYPE":"U","NORAD_CAT_ID":48018,"ELEMENT_SET_NO":999,"REV_AT_EPOCH":590,"BSTAR":6.3514461e-5,"MEAN_MOTION_DOT":7.484e-5,"MEAN_MOTION_DDOT":0},{"OBJECT_NAME":"STARLINK-2285","OBJECT_ID":"2021-024AU","EPOCH":"2025-08-24T09:38:25.676448","MEAN_MOTION":15.06402901,"ECCENTRICITY":0.00013321,"INCLINATION":53.0539,"RA_OF_ASC_NODE":117.2817,"ARG_OF_PERICENTER":96.7653,"MEAN_ANOMALY":263.3488,"EPHEMERIS_TYPE":0,"CLASSIFICATION_TYPE":"U","NORAD_CAT_ID":48019,"ELEMENT_SET_NO":999,"REV_AT_EPOCH":24511,"BSTAR":0.00010730181,"MEAN_MOTION_DOT":1.317e-5,"MEAN_MOTION_DDOT":0},{"OBJECT_NAME":"STARLINK-2298","OBJECT_ID":"2021-024AX","EPOCH":"2025-08-24T03:40:11.570880","MEAN_MOTION":15.06414559,"ECCENTRICITY":0.00014377,"INCLINATION":53.0541,"RA_OF_ASC_NODE":138.6768,"ARG_OF_PERICENTER":90.9586,"MEAN_ANOMALY":269.1567,"EPHEMERIS_TYPE":0,"CLASSIFICATION_TYPE":"U","NORAD_CAT_ID":48022,"ELEMENT_SET_NO":999,"REV_AT_EPOCH":24485,"BSTAR":0.00019173921,"MEAN_MOTION_DOT":2.577e-5,"MEAN_MOTION_DDOT":0},{"OBJECT_NAME":"STARLINK-2292","OBJECT_ID":"2021-024AY","EPOCH":"2025-08-24T00:13:08.839776","MEAN_MOTION":15.06414231,"ECCENTRICITY":0.00014204,"INCLINATION":53.0547,"RA_OF_ASC_NODE":139.0407,"ARG_OF_PERICENTER":91.088,"MEAN_ANOMALY":269.0272,"EPHEMERIS_TYPE":0,"CLASSIFICATION_TYPE":"U","NORAD_CAT_ID":48023,"ELEMENT_SET_NO":999,"REV_AT_EPOCH":24483,"BSTAR":0.00020727721,"MEAN_MOTION_DOT":2.808e-5,"MEAN_MOTION_DDOT":0},{"OBJECT_NAME":"STARLINK-2299","OBJECT_ID":"2021-024BE","EPOCH":"2025-08-24T01:16:49.173024","MEAN_MOTION":15.06413487,"ECCENTRICITY":0.00013915,"INCLINATION":53.0545,"RA_OF_ASC_NODE":138.8397,"ARG_OF_PERICENTER":90.4043,"MEAN_ANOMALY":269.7106,"EPHEMERIS_TYPE":0,"CLASSIFICATION_TYPE":"U","NORAD_CAT_ID":48029,"ELEMENT_SET_NO":999,"REV_AT_EPOCH":24484,"BSTAR":0.00016628503,"MEAN_MOTION_DOT":2.197e-5,"MEAN_MOTION_DDOT":0},{"OBJECT_NAME":"STARLINK-2404","OBJECT_ID":"2021-027B","EPOCH":"2025-08-24T13:35:59.866368","MEAN_MOTION":15.06400303,"ECCENTRICITY":0.00013717,"INCLINATION":53.0564,"RA_OF_ASC_NODE":326.7417,"ARG_OF_PERICENTER":86.9211,"MEAN_ANOMALY":273.1935,"EPHEMERIS_TYPE":0,"CLASSIFICATION_TYPE":"U","NORAD_CAT_ID":48093,"ELEMENT_SET_NO":999,"REV_AT_EPOCH":24284,"BSTAR":-4.706747e-5,"MEAN_MOTION_DOT":-9.82e-6,"MEAN_MOTION_DDOT":0},{"OBJECT_NAME":"STARLINK-2412","OBJECT_ID":"2021-027C","EPOCH":"2025-08-24T14:01:10.263648","MEAN_MOTION":15.06390565,"ECCENTRICITY":0.00011678,"INCLINATION":53.0567,"RA_OF_ASC_NODE":336.4625,"ARG_OF_PERICENTER":96.9669,"MEAN_ANOMALY":263.1453,"EPHEMERIS_TYPE":0,"CLASSIFICATION_TYPE":"U","NORAD_CAT_ID":48094,"ELEMENT_SET_NO":999,"REV_AT_EPOCH":24271,"BSTAR":5.5951333e-5,"MEAN_MOTION_DOT":5.52e-6,"MEAN_MOTION_DDOT":0}]
